[{"OBJECT_NAME":"STARLINK-5296","OBJECT_ID":"2023-010AV","EPOCH":"2026-03-09T22:54:44.488512","MEAN_MOTION":14.98326482,"ECCENTRICITY":0.00026596,"INCLINATION":70.0011,"RA_OF_ASC_NODE":3.6083,"ARG_OF_PERICENTER":266.2756,"MEAN_ANOMALY":93.8099,"EPHEMERIS_TYPE":0,"CLASSIFICATION_TYPE":"U","NORAD_CAT_ID":55312,"ELEMENT_SET_NO":999,"REV_AT_EPOCH":17467,"BSTAR":-3.5215654e-5,"MEAN_MOTION_DOT":-5.13e-6,"MEAN_MOTION_DDOT":0},{"OBJECT_NAME":"KUIPER-00106","OBJECT_ID":"2025-171N","EPOCH":"2026-03-09T10:38:15.017568","MEAN_MOTION":14.97188469,"ECCENTRICITY":0.00079317,"INCLINATION":51.8933,"RA_OF_ASC_NODE":156.0933,"ARG_OF_PERICENTER":97.4823,"MEAN_ANOMALY":262.7049,"EPHEMERIS_TYPE":0,"CLASSIFICATION_TYPE":"U","NORAD_CAT_ID":65144,"ELEMENT_SET_NO":999,"REV_AT_EPOCH":3290,"BSTAR":0.00038673669,"MEAN_MOTION_DOT":4.265e-5,"MEAN_MOTION_DDOT":0}]
